{
    "links": {
        "self": "http://www.neowsapp.com/rest/v1/neo/3547675?api_key=iIulBulltgU6a56xZRHN4H3l9WmuAYTsLGpBGhQ2"
    },
    "id": "3547675",
    "neo_reference_id": "3547675",
    "name": "(2010 SR16)",
    "designation": "2010 SR16",
    "nasa_jpl_url": "http://ssd.jpl.nasa.gov/sbdb.cgi?sstr=3547675",
    "absolute_magnitude_h": 24.3,
    "estimated_diameter": {
        "kilometers": {
            "estimated_diameter_min": 0.0366906138,
            "estimated_diameter_max": 0.0820427065
        },
        "meters": {
            "estimated_diameter_min": 36.6906137531,
            "estimated_diameter_max": 82.0427064882
        },
        "miles": {
            "estimated_diameter_min": 0.0227984834,
            "estimated_diameter_max": 0.0509789586
        },
        "feet": {
            "estimated_diameter_min": 120.3760332259,
            "estimated_diameter_max": 269.1689931548
        }
    },
    "is_potentially_hazardous_asteroid": false,
    "close_approach_data": [
        {
            "close_approach_date": "2010-10-01",
            "close_approach_date_full": "2010-Oct-01 03:39",
            "epoch_date_close_approach": 1285904340000,
            "relative_velocity": {
                "kilometers_per_second": "15.5968112542",
                "kilometers_per_hour": "56148.5205152384",
                "miles_per_hour": "34888.5070945936"
            },
            "miss_distance": {
                "astronomical": "0.0568198578",
                "lunar": "22.1029246842",
                "kilometers": "8500129.700582886",
                "miles": "5281735.6786043868"
            },
            "orbiting_body": "Earth"
        },
        {
            "close_approach_date": "2011-03-04",
            "close_approach_date_full": "2011-Mar-04 08:49",
            "epoch_date_close_approach": 1299228540000,
            "relative_velocity": {
                "kilometers_per_second": "14.4130271463",
                "kilometers_per_hour": "51886.8977268265",
                "miles_per_hour": "32240.5004236495"
            },
            "miss_distance": {
                "astronomical": "0.3681018501",
                "lunar": "143.1916196889",
                "kilometers": "55067252.718019287",
                "miles": "34217204.1661366806"
            },
            "orbiting_body": "Earth"
        }
    ],
    "orbital_data": {
        "orbit_id": "9",
        "orbit_determination_date": "2017-04-06 08:56:30",
        "first_observation_date": "2010-09-30",
        "last_observation_date": "2010-10-04",
        "data_arc_in_days": 4,
        "observations_used": 46,
        "orbit_uncertainty": "8",
        "minimum_orbit_intersection": ".0514936",
        "jupiter_tisserand_invariant": "4.711",
        "epoch_osculation": "2455470.5",
        "eccentricity": ".3018803966297683",
        "semi_major_axis": "1.352031094411696",
        "inclination": "27.43700793799264",
        "ascending_node_longitude": "4.643729700586598",
        "orbital_period": "574.2201740824109",
        "perihelion_distance": ".9438794113749137",
        "perihelion_argument": "57.8237369634961",
        "aphelion_distance": "1.760182777448479",
        "perihelion_time": "2455519.659353539462",
        "mean_anomaly": "329.1801715213398",
        "mean_motion": ".6269372206841578",
        "equinox": "J2000",
        "orbit_class": {
            "orbit_class_type": "APO",
            "orbit_class_description": "Near-Earth asteroid orbits which cross the Earth’s orbit similar to that of 1862 Apollo",
            "orbit_class_range": "a (semi-major axis) > 1.0 AU; q (perihelion) < 1.017 AU"
        }
    },
    "is_sentry_object": false
}